1 11561U 79087A   20054.71996855 -.00000281  00000-0  00000+0 0  9997
2 11561  11.0250 311.1593 0009896  71.9464 124.7436  1.00253301109801
1 11561U 79087A   20054.87955932 -.00000281  00000-0  00000-0 0  9996
2 11561  11.0246 311.1574 0009912  72.0529 182.2379  1.00253243 24253
1 11561U 79087A   20055.82980545 -.00000280  00000-0  00000-0 0  9999
2 11561  11.0227 311.1459 0009999  72.5556 164.7058  1.00252883 24263
1 11561U 79087A   20056.65817698 -.00000278  00000-0  00000-0 0  9996
2 11561  11.0209 311.1358 0010070  72.9837 103.2596  1.00252577 24275
1 11561U 79087A   20058.86128344 -.00000271  00000-0  00000-0 0  9997
2 11561  11.0164 311.1091 0010255  74.2043 177.1952  1.00251787 24298
1 11561U 79087A   20058.92568358 -.00000270  00000-0  00000+0 0  9995
2 11561  11.0163 311.1083 0010264  74.2614 200.3814  1.00251758109841
1 11561U 79087A   20059.67289921 -.00000268  00000-0  00000-0 0  9992
2 11561  11.0147 311.0992 0010320  74.6504 109.6801  1.00251490 24303
1 11561U 79087A   20061.10863977 -.00000262  00000-0  00000+0 0  9995
2 11561  11.0117 311.0817 0010434  75.4700 267.0498  1.00250977109875
1 11561U 79087A   20061.64665962 -.00000261  00000-0  00000-0 0  9998
2 11561  11.0106 311.0751 0010472  75.7305 100.9720  1.00250780 24327
1 11561U 79087A   20062.11358678 -.00000260  00000-0  00000-0 0  9993
2 11561  11.0097 311.0695 0010500  75.9928 269.2353  1.00250684 24322
1 11561U 79087A   20062.65465317 -.00000259  00000-0  00000-0 0  9999
2 11561  11.0086 311.0629 0010546  76.3516 104.1569  1.00250457 24330
1 11561U 79087A   20063.11853976 -.00000259  00000-0  00000-0 0  9993
2 11561  11.0076 311.0572 0010579  76.6051 271.3293  1.00250319109892
1 11561U 79087A   20063.79450330 -.00000259  00000-0  00000-0 0  9994
2 11561  11.0063 311.0490 0010623  76.9411 154.9594  1.00250040 24347
1 11561U 79087A   20064.12350799 -.00000260  00000-0  00000-0 0  9992
2 11561  11.0057 311.0451 0010649  77.1250 273.5183  1.00249915 24340
1 11561U 79087A   20064.62607421 -.00000261  00000-0  00000-0 0  9995
2 11561  11.0046 311.0390 0010684  77.4002  94.6282  1.00249739 24354
1 11561U 79087A   20066.63600562 -.00000268  00000-0  00000+0 0  9993
2 11561  11.0007 311.0147 0010820  78.4172  99.0288  1.00249087109920
1 11561U 79087A   20067.64095185 -.00000273  00000-0  00000-0 0  9991
2 11561  10.9987 311.0026 0010887  78.8880 101.2567  1.00248734 24384
1 11561U 79087A   20068.12618964 -.00000275  00000-0  00000-0 0  9993
2 11561  10.9978 310.9969 0010936  79.1262 276.1449  1.00248528 24383
1 11561U 79087A   20069.87209793 -.00000282  00000-0  00000+0 0  9999
2 11561  10.9943 310.9759 0011052  79.8849 185.5062  1.00247960109950
1 11561U 79087A   20069.87209793 -.00000282  00000-0  00000-0 0  9990
2 11561  10.9943 310.9759 0011052  79.8849 185.5062  1.00247960 24406
1 11561U 79087A   20070.65579984 -.00000283  00000-0  00000-0 0  9991
2 11561  10.9928 310.9665 0011112  80.2424 107.9955  1.00247708 24417
1 11561U 79087A   20071.08653604 -.00000284  00000-0  00000-0 0  9992
2 11561  10.9919 310.9614 0011148  80.3947 263.2991  1.00247553 24415
1 11561U 79087A   20071.58910215 -.00000284  00000-0  00000-0 0  9991
2 11561  10.9909 310.9554 0011187  80.6435  84.4308  1.00247372 24420
1 11561U 79087A   20072.09151507 -.00000283  00000-0  00000+0 0  9997
2 11561  10.9900 310.9494 0011222  80.8189 265.5789  1.00247177109985
1 11561U 79087A   20072.13729948 -.00000283  00000-0  00000-0 0  9993
2 11561  10.9899 310.9489 0011227  80.8414 282.0803  1.00247161 24432
1 11561U 79087A   20073.67068557 -.00000281  00000-0  00000-0 0  9993
2 11561  10.9868 310.9306 0011343  81.4997 114.8318  1.00246638 24440
1 11561U 79087A   20074.11507620 -.00000279  00000-0  00000+0 0  9998
2 11561  10.9859 310.9252 0011377  81.6783 275.0348  1.00246459110004
1 11561U 79087A   20074.67532965 -.00000278  00000-0  00000-0 0  9999
2 11561  10.9848 310.9185 0011427  81.9605 116.9523  1.00246297 24450
1 11561U 79087A   20075.77691451 -.00000276  00000-0  00000-0 0  9995
2 11561  10.9826 310.9053 0011511  82.4132 154.0658  1.00245917 24466
1 11561U 79087A   20076.11135720 -.00000276  00000-0  00000-0 0  9996
2 11561  10.9819 310.9012 0011530  82.5032 274.6777  1.00245819 24466
1 11561U 79087A   20077.11631465 -.00000275  00000-0  00000-0 0  9993
2 11561  10.9798 310.8891 0011609  82.9425 276.9276  1.00245424110033
1 11561U 79087A   20077.61881148 -.00000275  00000-0  00000-0 0  9993
2 11561  10.9788 310.8830 0011653  83.1728  98.0499  1.00245261 24485
1 11561U 79087A   20078.12122292 -.00000275  00000-0  00000-0 0  9998
2 11561  10.9778 310.8769 0011689  83.4055 279.1373  1.00245087 24490
1 11561U 79087A   20078.62374714 -.00000276  00000-0  00000-0 0  9992
2 11561  10.9768 310.8709 0011736  83.6687 100.2357  1.00244921 24491
1 11561U 79087A   20079.84311144 -.00000276  00000-0  00000+0 0  9994
2 11561  10.9743 310.8562 0011829  84.2730 179.6952  1.00244436110050
1 11561U 79087A   20079.84311144 -.00000277  00000-0  00000-0 0  9996
2 11561  10.9743 310.8562 0011829  84.2730 179.6952  1.00244436 24504
1 11561U 79087A   20080.12200993 -.00000277  00000-0  00000-0 0  9998
2 11561  10.9737 310.8528 0011851  84.4201 280.2005  1.00244312 24511
1 11561U 79087A   20080.77987887 -.00000277  00000-0  00000-0 0  9993
2 11561  10.9724 310.8449 0011912  84.8018 157.2444  1.00244149 24515
1 11561U 79087A   20081.87465882 -.00000276  00000-0  00000+0 0  9999
2 11561  10.9701 310.8319 0011997  85.3839 191.7648  1.00243810110076
1 11561U 79087A   20083.59910338 -.00000273  00000-0  00000-0 0  9999
2 11561  10.9666 310.8114 0012142  86.3545  93.1362  1.00243248 24546
1 11561U 79087A   20084.60118733 -.00000270  00000-0  00000+0 0  9997
2 11561  10.9645 310.7995 0012212  86.8947  94.2397  1.00242911110102
1 11561U 79087A   20084.60118733 -.00000270  00000-0  00000-0 0  9998
2 11561  10.9645 310.7995 0012212  86.8947  94.2397  1.00242911 24555
1 11561U 79087A   20086.60049545 -.00000262  00000-0  00000-0 0  9995
2 11561  10.9603 310.7757 0012360  88.0685  94.5971  1.00242283 24577
1 11561U 79087A   20087.59664299 -.00000257  00000-0  00000+0 0  9996
2 11561  10.9582 310.7639 0012421  88.6120  93.5498  1.00241920110138
1 11561U 79087A   20088.59702101 -.00000253  00000-0  00000-0 0  9999
2 11561  10.9561 310.7519 0012485  89.1829  94.0034  1.00241620 24597
1 11561U 79087A   20089.10400726 -.00000252  00000-0  00000-0 0  9994
2 11561  10.9551 310.7459 0012521  89.5221 276.6275  1.00241446 24603
1 11561U 79087A   20089.60659729 -.00000250  00000-0  00000+0 0  9995
2 11561  10.9541 310.7399 0012553  89.7964  97.7319  1.00241297110157
1 11561U 79087A   20090.03726890 -.00000249  00000-0  00000-0 0  9997
2 11561  10.9531 310.7348 0012577  90.0349 252.9181  1.00241212 24601
1 11561U 79087A   20090.70180245 -.00000249  00000-0  00000-0 0  9999
2 11561  10.9518 310.7268 0012614  90.3953 132.3787  1.00241015 24618
1 11561U 79087A   20091.83013101 -.00000249  00000-0  00000-0 0  9990
2 11561  10.9495 310.7133 0012680  91.0652 178.9024  1.00240613 24624
1 11561U 79087A   20092.08174338 -.00000250  00000-0  00000-0 0  9990
2 11561  10.9489 310.7104 0012697  91.1997 269.5704  1.00240536 24633
1 11561U 79087A   20092.81178609 -.00000251  00000-0  00000-0 0  9997
2 11561  10.9475 310.7017 0012731  91.5775 172.6533  1.00240321 24634
1 11561U 79087A   20093.78155545 -.00000255  00000-0  00000-0 0  9992
2 11561  10.9455 310.6902 0012776  92.0481 162.1546  1.00240010 24647
1 11561U 79087A   20094.07410314 -.00000255  00000-0  00000+0 0  9992
2 11561  10.9449 310.6868 0012794  92.1798 267.5977  1.00239928110205
1 11561U 79087A   20094.55961248 -.00000258  00000-0  00000-0 0  9996
2 11561  10.9440 310.6810 0012820  92.4554  82.5346  1.00239800 24653
1 11561U 79087A   20095.05504045 -.00000260  00000-0  00000-0 0  9993
2 11561  10.9430 310.6752 0012842  92.6546 261.1261  1.00239673 24653
1 11561U 79087A   20095.87245782 -.00000263  00000-0  00000-0 0  9996
2 11561  10.9413 310.6656 0012881  93.0814 195.6884  1.00239410 24665
1 11561U 79087A   20096.06700280 -.00000264  00000-0  00000-0 0  9998
2 11561  10.9410 310.6633 0012896  93.1587 265.8185  1.00239361 24660
1 11561U 79087A   20096.56956546 -.00000265  00000-0  00000+0 0  9991
2 11561  10.9400 310.6574 0012924  93.4553  86.8856  1.00239186110220
1 11561U 79087A   20097.07201917 -.00000267  00000-0  00000-0 0  9996
2 11561  10.9390 310.6515 0012948  93.6402 268.0253  1.00239044 24686
1 11561U 79087A   20097.82440184 -.00000268  00000-0  00000-0 0  9991
2 11561  10.9374 310.6427 0012981  93.9885 179.1963  1.00238841 24689
1 11561U 79087A   20098.57063212 -.00000268  00000-0  00000+0 0  9996
2 11561  10.9360 310.6339 0013025  94.3335  88.1484  1.00238607110246
1 11561U 79087A   20099.51271098 -.00000267  00000-0  00000-0 0  9994
2 11561  10.9341 310.6228 0013079  94.7622  67.6912  1.00238272 24705
1 11561U 79087A   20099.82661834 -.00000266  00000-0  00000-0 0  9998
2 11561  10.9334 310.6191 0013090  94.9025 180.8339  1.00238222 24704
1 11561U 79087A   20100.51766265 -.00000265  00000-0  00000-0 0  9990
2 11561  10.9320 310.6110 0013133  95.2101  69.9076  1.00238030 24710
1 11561U 79087A   20100.58930198 -.00000264  00000-0  00000+0 0  9993
2 11561  10.9319 310.6101 0013136  95.2418  95.7280  1.00237990110266
1 11561U 79087A   20100.83896574 -.00000264  00000-0  00000-0 0  9991
2 11561  10.9314 310.6072 0013144  95.3466 185.7208  1.00237931 24710
1 11561U 79087A   20101.05258050 -.00000263  00000-0  00000-0 0  9996
2 11561  10.9310 310.6047 0013159  95.4507 262.7038  1.00237849 24716
1 11561U 79087A   20101.59408955 -.00000261  00000-0  00000-0 0  9994
2 11561  10.9299 310.5983 0013193  95.7081  97.8624  1.00237669 24727
1 11561U 79087A   20102.09651042 -.00000260  00000-0  00000-0 0  9996
2 11561  10.9288 310.5923 0013209  95.8454 279.0359  1.00237542 24732
1 11561U 79087A   20102.59904074 -.00000258  00000-0  00000+0 0  9993
2 11561  10.9278 310.5864 0013243  96.0921 100.1379  1.00237366110281
